start=new Date('2023-01-02T00:00:00.000Z').valueOf();
sats=[{"TIME_SYSTEM":"UTC","INCLINATION":"53.2168","RA_OF_ASC_NODE":"100.5028","OBJECT_NAME":"STARLINK-3182","LAUNCH_DATE":"2022-02-03","TLE_LINE2":"2 51469  53.2168 100.5028 0002605  45.5385 314.5819 15.08827926 51231","OBJECT_ID":"2022-010P","ECCENTRICITY":"0.00026050","REV_AT_EPOCH":"5123","COUNTRY_CODE":"US","OBJECT_TYPE":"PAYLOAD","GP_ID":"221990070","MEAN_ANOMALY":"314.5819","TLE_LINE1":"1 51469U 22010P   23001.58685189 -.00006273  00000-0 -37646-3 0  9995","SITE":"AFETR","DECAY_DATE":null,"BSTAR":"-0.00037646000000","EPOCH":"2023-01-01T14:05:04.003296","MEAN_MOTION_DDOT":"0.0000000000000","RCS_SIZE":"LARGE","REF_FRAME":"TEME","MEAN_MOTION":"15.08827926","ARG_OF_PERICENTER":"45.5385","FILE":"3728952","APOAPSIS":"541.584","SEMIMAJOR_AXIS":"6917.917","PERIAPSIS":"537.980","EPHEMERIS_TYPE":"0","PERIOD":"95.438","MEAN_MOTION_DOT":"-0.00006273","MEAN_ELEMENT_THEORY":"SGP4","ELEMENT_SET_NO":"999","CLASSIFICATION_TYPE":"U","NORAD_CAT_ID":"51469","CENTER_NAME":"EARTH"},{"TLE_LINE1":"1 51471U 22010R   23001.97042422  .00020149  00000-0  11765-2 0  9997","DECAY_DATE":null,"BSTAR":"0.00117650000000","SITE":"AFETR","MEAN_MOTION_DDOT":"0.0000000000000","EPOCH":"2023-01-01T23:17:24.652608","REV_AT_EPOCH":"5187","ECCENTRICITY":"0.00018570","OBJECT_ID":"2022-010R","MEAN_ANOMALY":"151.2798","OBJECT_TYPE":"PAYLOAD","GP_ID":"221996348","COUNTRY_CODE":"US","LAUNCH_DATE":"2022-02-03","TLE_LINE2":"2 51471  53.2166  92.8518 0001857 208.8093 151.2798 15.11925022 51879","TIME_SYSTEM":"UTC","OBJECT_NAME":"STARLINK-3165","RA_OF_ASC_NODE":"92.8518","INCLINATION":"53.2166","ELEMENT_SET_NO":"999","MEAN_ELEMENT_THEORY":"SGP4","MEAN_MOTION_DOT":"0.00020149","CENTER_NAME":"EARTH","NORAD_CAT_ID":"51471","CLASSIFICATION_TYPE":"U","SEMIMAJOR_AXIS":"6908.467","PERIOD":"95.243","EPHEMERIS_TYPE":"0","PERIAPSIS":"529.049","APOAPSIS":"531.615","FILE":"3729082","ARG_OF_PERICENTER":"208.8093","MEAN_MOTION":"15.11925022","RCS_SIZE":"LARGE","REF_FRAME":"TEME"},{"EPHEMERIS_TYPE":"0","PERIAPSIS":"538.505","PERIOD":"95.440","SEMIMAJOR_AXIS":"6917.979","CLASSIFICATION_TYPE":"U","NORAD_CAT_ID":"51472","CENTER_NAME":"EARTH","MEAN_ELEMENT_THEORY":"SGP4","MEAN_MOTION_DOT":"-0.00006783","ELEMENT_SET_NO":"999","REF_FRAME":"TEME","RCS_SIZE":"LARGE","ARG_OF_PERICENTER":"42.6035","MEAN_MOTION":"15.08807788","APOAPSIS":"541.182","FILE":"3729089","COUNTRY_CODE":"US","MEAN_ANOMALY":"317.5106","GP_ID":"221996557","OBJECT_TYPE":"PAYLOAD","ECCENTRICITY":"0.00019350","OBJECT_ID":"2022-010S","REV_AT_EPOCH":"5179","MEAN_MOTION_DDOT":"0.0000000000000","EPOCH":"2023-01-01T23:10:53.747040","TLE_LINE1":"1 51472U 22010S   23001.96589985 -.00006783  00000-0 -40885-3 0  9993","DECAY_DATE":null,"SITE":"AFETR","BSTAR":"-0.00040885000000","INCLINATION":"53.2153","OBJECT_NAME":"STARLINK-3415","RA_OF_ASC_NODE":"98.8024","TIME_SYSTEM":"UTC","TLE_LINE2":"2 51472  53.2153  98.8024 0001935  42.6035 317.5106 15.08807788 51796","LAUNCH_DATE":"2022-02-03"},{"LAUNCH_DATE":"2022-02-21","TLE_LINE2":"2 51714  53.2154 148.1888 0002235  52.4632 307.6563 15.08842866 48978","TIME_SYSTEM":"UTC","OBJECT_NAME":"STARLINK-3528","RA_OF_ASC_NODE":"148.1888","INCLINATION":"53.2154","TLE_LINE1":"1 51714U 22016A   23002.10113211 -.00000645  00000-0 -22405-4 0  9990","BSTAR":"-0.00002240500000","DECAY_DATE":null,"SITE":"AFETR","MEAN_MOTION_DDOT":"0.0000000000000","EPOCH":"2023-01-02T02:25:37.814304","REV_AT_EPOCH":"4897","ECCENTRICITY":"0.00022350","OBJECT_ID":"2022-016A","MEAN_ANOMALY":"307.6563","OBJECT_TYPE":"PAYLOAD","GP_ID":"221996321","COUNTRY_CODE":"US","APOAPSIS":"541.283","FILE":"3729078","ARG_OF_PERICENTER":"52.4632","MEAN_MOTION":"15.08842866","RCS_SIZE":"LARGE","REF_FRAME":"TEME","ELEMENT_SET_NO":"999","MEAN_ELEMENT_THEORY":"SGP4","MEAN_MOTION_DOT":"-0.00000645","NORAD_CAT_ID":"51714","CENTER_NAME":"EARTH","CLASSIFICATION_TYPE":"U","SEMIMAJOR_AXIS":"6917.872","PERIOD":"95.437","PERIAPSIS":"538.190","EPHEMERIS_TYPE":"0"},{"SEMIMAJOR_AXIS":"6917.944","EPHEMERIS_TYPE":"0","PERIAPSIS":"537.945","PERIOD":"95.439","MEAN_MOTION_DOT":"-0.00003117","MEAN_ELEMENT_THEORY":"SGP4","ELEMENT_SET_NO":"999","CLASSIFICATION_TYPE":"U","CENTER_NAME":"EARTH","NORAD_CAT_ID":"51715","RCS_SIZE":"LARGE","REF_FRAME":"TEME","MEAN_MOTION":"15.08819079","ARG_OF_PERICENTER":"52.8807","FILE":"3729079","APOAPSIS":"541.674","OBJECT_ID":"2022-016B","ECCENTRICITY":"0.00026950","REV_AT_EPOCH":"4904","COUNTRY_CODE":"US","OBJECT_TYPE":"PAYLOAD","GP_ID":"221996132","MEAN_ANOMALY":"307.2431","TLE_LINE1":"1 51715U 22016B   23002.09011525 -.00003117  00000-0 -17789-3 0  9999","DECAY_DATE":null,"SITE":"AFETR","BSTAR":"-0.00017789000000","EPOCH":"2023-01-02T02:09:45.957600","MEAN_MOTION_DDOT":"0.0000000000000","TIME_SYSTEM":"UTC","INCLINATION":"53.2143","RA_OF_ASC_NODE":"148.2430","OBJECT_NAME":"STARLINK-3533","LAUNCH_DATE":"2022-02-21","TLE_LINE2":"2 51715  53.2143 148.2430 0002695  52.8807 307.2431 15.08819079 49048"},{"MEAN_MOTION_DDOT":"0.0000000000000","EPOCH":"2023-01-01T18:23:24.863136","TLE_LINE1":"1 51716U 22016C   23001.76625999 -.00001013  00000-0 -45525-4 0  9992","DECAY_DATE":null,"SITE":"AFETR","BSTAR":"-0.00004552500000","COUNTRY_CODE":"US","MEAN_ANOMALY":"310.8746","OBJECT_TYPE":"PAYLOAD","GP_ID":"221990330","ECCENTRICITY":"0.00030930","OBJECT_ID":"2022-016C","REV_AT_EPOCH":"4786","TLE_LINE2":"2 51716  53.2143 149.6916 0003093  49.2515 310.8746 15.08835428 47865","LAUNCH_DATE":"2022-02-21","INCLINATION":"53.2143","OBJECT_NAME":"STARLINK-3543","RA_OF_ASC_NODE":"149.6916","TIME_SYSTEM":"UTC","CLASSIFICATION_TYPE":"U","NORAD_CAT_ID":"51716","CENTER_NAME":"EARTH","MEAN_ELEMENT_THEORY":"SGP4","MEAN_MOTION_DOT":"-0.00001013","ELEMENT_SET_NO":"999","EPHEMERIS_TYPE":"0","PERIAPSIS":"537.620","PERIOD":"95.438","SEMIMAJOR_AXIS":"6917.894","ARG_OF_PERICENTER":"49.2515","MEAN_MOTION":"15.08835428","APOAPSIS":"541.899","FILE":"3728952","REF_FRAME":"TEME","RCS_SIZE":"LARGE"},{"INCLINATION":"53.2153","RA_OF_ASC_NODE":"150.0046","OBJECT_NAME":"STARLINK-3445","TIME_SYSTEM":"UTC","TLE_LINE2":"2 51717  53.2153 150.0046 0002979  49.2120 310.9131 15.08837445 47850","LAUNCH_DATE":"2022-02-21","COUNTRY_CODE":"US","OBJECT_TYPE":"PAYLOAD","GP_ID":"221990581","MEAN_ANOMALY":"310.9131","OBJECT_ID":"2022-016D","ECCENTRICITY":"0.00029790","REV_AT_EPOCH":"4785","EPOCH":"2023-01-01T16:42:43.675776","MEAN_MOTION_DDOT":"0.0000000000000","DECAY_DATE":null,"TLE_LINE1":"1 51717U 22016D   23001.69633884 -.00000026  00000-0  16511-4 0  9992","BSTAR":"0.00001651100000","SITE":"AFETR","REF_FRAME":"TEME","RCS_SIZE":"LARGE","MEAN_MOTION":"15.08837445","ARG_OF_PERICENTER":"49.2120","FILE":"3728952","APOAPSIS":"541.814","PERIAPSIS":"537.692","EPHEMERIS_TYPE":"0","PERIOD":"95.438","SEMIMAJOR_AXIS":"6917.888","CLASSIFICATION_TYPE":"U","CENTER_NAME":"EARTH","NORAD_CAT_ID":"51717","MEAN_MOTION_DOT":"-0.00000026","MEAN_ELEMENT_THEORY":"SGP4","ELEMENT_SET_NO":"999"},{"TLE_LINE1":"1 51718U 22016E   23001.68161770 -.00001150  00000-0 -54122-4 0  9992","SITE":"AFETR","DECAY_DATE":null,"BSTAR":"-0.00005412200000","MEAN_MOTION_DDOT":"0.0000000000000","EPOCH":"2023-01-01T16:21:31.769280","ECCENTRICITY":"0.00032740","OBJECT_ID":"2022-016E","REV_AT_EPOCH":"4897","COUNTRY_CODE":"US","MEAN_ANOMALY":"315.9609","GP_ID":"221990831","OBJECT_TYPE":"PAYLOAD","LAUNCH_DATE":"2022-02-21","TLE_LINE2":"2 51718  53.2166 150.0568 0003274  44.1644 315.9609 15.08830398 48977","TIME_SYSTEM":"UTC","INCLINATION":"53.2166","OBJECT_NAME":"STARLINK-3546","RA_OF_ASC_NODE":"150.0568","MEAN_ELEMENT_THEORY":"SGP4","MEAN_MOTION_DOT":"-0.00001150","ELEMENT_SET_NO":"999","CLASSIFICATION_TYPE":"U","CENTER_NAME":"EARTH","NORAD_CAT_ID":"51718","SEMIMAJOR_AXIS":"6917.910","PERIAPSIS":"537.510","EPHEMERIS_TYPE":"0","PERIOD":"95.438","ARG_OF_PERICENTER":"44.1644","MEAN_MOTION":"15.08830398","APOAPSIS":"542.040","FILE":"3728952","RCS_SIZE":"LARGE","REF_FRAME":"TEME"},{"RA_OF_ASC_NODE":"150.0456","OBJECT_NAME":"STARLINK-3540","INCLINATION":"53.2160","TIME_SYSTEM":"UTC","TLE_LINE2":"2 51719  53.2160 150.0456 0002749  41.4224 318.6976 15.08834086 48917","LAUNCH_DATE":"2022-02-21","OBJECT_TYPE":"PAYLOAD","GP_ID":"221996516","MEAN_ANOMALY":"318.6976","COUNTRY_CODE":"US","REV_AT_EPOCH":"4891","OBJECT_ID":"2022-016F","ECCENTRICITY":"0.00027490","EPOCH":"2023-01-01T16:32:07.468512","MEAN_MOTION_DDOT":"0.0000000000000","TLE_LINE1":"1 51719U 22016F   23001.68897533 -.00002629  00000-0 -14709-3 0  9994","DECAY_DATE":null,"BSTAR":"-0.00014709000000","SITE":"AFETR","REF_FRAME":"TEME","RCS_SIZE":"LARGE","FILE":"3729082","APOAPSIS":"541.665","MEAN_MOTION":"15.08834086","ARG_OF_PERICENTER":"41.4224","PERIOD":"95.438","PERIAPSIS":"537.862","EPHEMERIS_TYPE":"0","SEMIMAJOR_AXIS":"6917.898","NORAD_CAT_ID":"51719","CENTER_NAME":"EARTH","CLASSIFICATION_TYPE":"U","ELEMENT_SET_NO":"999","MEAN_MOTION_DOT":"-0.00002629","MEAN_ELEMENT_THEORY":"SGP4"},{"RCS_SIZE":"LARGE","REF_FRAME":"TEME","FILE":"3728952","APOAPSIS":"541.805","MEAN_MOTION":"15.08834815","ARG_OF_PERICENTER":"33.0992","SEMIMAJOR_AXIS":"6917.896","PERIOD":"95.438","PERIAPSIS":"537.717","EPHEMERIS_TYPE":"0","ELEMENT_SET_NO":"999","MEAN_MOTION_DOT":"-0.00003184","MEAN_ELEMENT_THEORY":"SGP4","NORAD_CAT_ID":"51720","CENTER_NAME":"EARTH","CLASSIFICATION_TYPE":"U","TIME_SYSTEM":"UTC","RA_OF_ASC_NODE":"149.4881","OBJECT_NAME":"STARLINK-3526","INCLINATION":"53.2162","LAUNCH_DATE":"2022-02-21","TLE_LINE2":"2 51720  53.2162 149.4881 0002955  33.0992 327.0184 15.08834815 47861","REV_AT_EPOCH":"4786","OBJECT_ID":"2022-016G","ECCENTRICITY":"0.00029550","GP_ID":"221989831","OBJECT_TYPE":"PAYLOAD","MEAN_ANOMALY":"327.0184","COUNTRY_CODE":"US","TLE_LINE1":"1 51720U 22016G   23001.81041527 -.00003184  00000-0 -18200-3 0  9992","BSTAR":"-0.00018200000000","DECAY_DATE":null,"SITE":"AFETR","EPOCH":"2023-01-01T19:26:59.879328","MEAN_MOTION_DDOT":"0.0000000000000"}];
